IRIDIUM 7 [-]           
1 24793U 97020B   23359.15071118  .00000598  00000+0  20327-3 0  9997
2 24793  86.3958  43.1064 0002431  93.7911 266.3563 14.35018606394645
IRIDIUM 5 [-]           
1 24795U 97020D   23359.48665513  .00006580  00000+0  65674-3 0  9994
2 24795  86.3927 330.5968 0123406 261.9181  96.8028 14.85773088405140
IRIDIUM 4 [-]           
1 24796U 97020E   23359.12996163  .00000611  00000+0  20396-3 0  9995
2 24796  86.3955  40.3517 0002202  96.2870 263.8578 14.35927514394976
IRIDIUM 914 [-]         
1 24836U 97030A   23359.21053133  .00000716  00000+0  22246-3 0  9994
2 24836  86.3933  50.5001 0002334 140.6316 219.5053 14.39757962391507
IRIDIUM 16 [-]          
1 24841U 97030F   23359.27762993  .00000736  00000+0  23881-3 0  9995
2 24841  86.4032  72.0077 0003757  66.4686 293.6906 14.37644529389667
IRIDIUM 911 [-]         
1 24842U 97030G   23359.13695507  .00001021  00000+0  27963-3 0  9990
2 24842  86.4458  71.3393 0016533  96.7980 263.5105 14.46207052396977
IRIDIUM 17 [-]          
1 24870U 97034B   23359.34527419  .00000843  00000+0  27931-3 0  9990
2 24870  86.3963 101.6377 0002121  44.4766 315.6601 14.36737937386043
IRIDIUM 920 [-]         
1 24871U 97034C   23359.31913355  .00000818  00000+0  25110-3 0  9995
2 24871  86.3974  82.1282 0013454  66.9331 293.3285 14.40461646389096
